BEIDOU-3 M2 (C20)       
1 43002U 17069B   26063.36523573 -.00000024  00000+0  00000+0 0  9998
2 43002  56.5998  66.5715 0009709 329.0395  30.9280  1.86230543 56644
BEIDOU-3 M7 (C27)       
1 43107U 18003A   26064.18114576 -.00000067  00000+0  00000+0 0  9990
2 43107  54.4201 305.9428 0004668  71.1796 288.9274  1.86232262 55416
BEIDOU-3 M8 (C28)       
1 43108U 18003B   26064.66366440 -.00000068  00000+0  00000+0 0  9994
2 43108  54.4124 305.9084 0002981 294.8553  65.1690  1.86230823 55430
BEIDOU-3 M4 (C22)       
1 43207U 18018A   26062.42109766 -.00000016  00000+0  00000+0 0  9991
2 43207  56.5592  66.6343 0006867 350.5022   9.5144  1.86230898 54773
BEIDOU-3 M3 (C21)       
1 43208U 18018B   26064.63534936 -.00000033  00000+0  00000+0 0  9997
2 43208  56.5606  66.5651 0009923 319.6810  40.2646  1.86231141 54814
BEIDOU-3 M9 (C29)       
1 43245U 18029A   26063.77860799 -.00000062  00000+0  00000+0 0  9995
2 43245  54.2878 303.6009 0000937  21.7845 338.2765  1.86228195 53959
BEIDOU-3 M10 (C30)      
1 43246U 18029B   26063.17653141 -.00000059  00000+0  00000+0 0  9997
2 43246  54.2860 303.6493 0005102  23.7928 336.2892  1.86228884 53922
BEIDOU-2 IGSO-7 (C16)   
1 43539U 18057A   26056.73984515 -.00000161  00000+0  00000+0 0  9993
2 43539  55.1859 164.0342 0099962 236.5988 133.5173  1.00284731 28015
BEIDOU-3 M5 (C23)       
1 43581U 18062A   26063.93761155  .00000001  00000+0  00000+0 0  9991
2 43581  54.0880 185.8478 0002154 310.0359  49.9110  1.86228706 51697
BEIDOU-3 M6 (C24)       
1 43582U 18062B   26062.72660318 -.00000014  00000+0  00000+0 0  9992
2 43582  54.0877 185.8781 0006255  44.1915 315.8167  1.86227526 51674
BEIDOU-3 M12 (C26)      
1 43602U 18067A   26064.81287395  .00000009  00000+0  00000+0 0  9995
2 43602  54.1823 184.5458 0008465  39.5876 320.4479  1.86227843 51192
BEIDOU-3 M11 (C25)      
1 43603U 18067B   26064.94763278  .00000010  00000+0  00000+0 0  9991
2 43603  54.1797 184.5046 0004957  33.7722 326.2341  1.86227127 51225
BEIDOU-3 M13 (C32)      
1 43622U 18072A   26063.82956810 -.00000029  00000+0  00000+0 0  9991
2 43622  56.5333  66.1018 0008916 307.8246  52.1164  1.86230808 50718
BEIDOU-3 M14 (C33)      
1 43623U 18072B   26063.69502611 -.00000028  00000+0  00000+0 0  9992
2 43623  56.5350  66.1003 0006376 328.8150  31.1695  1.86230841 50709
BEIDOU-3 M16 (C35)      
1 43647U 18078A   26064.38883562 -.00000064  00000+0  00000+0 0  9998
2 43647  54.1837 303.6261 0008456  31.3305 328.7753  1.86232381 50221
BEIDOU-3 M15 (C34)      
1 43648U 18078B   26062.37035185 -.00000055  00000+0  00000+0 0  9996
2 43648  54.1808 303.6975 0005342  38.8897 321.2084  1.86232017 50200
BEIDOU-3 G1 (C59)       
1 43683U 18085A   26065.32408231 -.00000283  00000+0  00000+0 0  9990
2 43683   2.8155 100.3325 0001489  17.2822 303.1125  1.00268050 27023
